{
  "meta": {
    "source": "据谭其骧《中国历史地图集·明时期·布政使司》轮廓手工简化",
    "license": "历史示意，仅用于儿童教育展示",
    "note": "非 CHGIS 精确边界，省界为手绘简化多边形，保留两京十三布政使司格局"
  },
  "type": "FeatureCollection",
  "features": [
    {
      "type": "Feature",
      "properties": { "name": "京师（北直隶）" },
      "geometry": {
        "type": "Polygon",
        "coordinates": [[
          [114.0,38.5],[115.0,40.5],[117.0,41.0],[119.5,40.0],[118.5,38.0],
          [116.5,36.5],[114.5,37.0],[114.0,38.5]
        ]]
      }
    },
    {
      "type": "Feature",
      "properties": { "name": "南京（南直隶）" },
      "geometry": {
        "type": "Polygon",
        "coordinates": [[
          [116.0,31.0],[117.0,33.5],[119.0,34.5],[121.5,33.5],[121.0,31.0],
          [119.0,29.5],[117.0,30.0],[116.0,31.0]
        ]]
      }
    },
    {
      "type": "Feature",
      "properties": { "name": "山东" },
      "geometry": {
        "type": "Polygon",
        "coordinates": [[
          [114.0,35.0],[115.0,37.5],[117.5,38.5],[120.5,38.0],[122.5,37.0],
          [121.0,35.0],[118.0,34.5],[115.0,34.5],[114.0,35.0]
        ]]
      }
    },
    {
      "type": "Feature",
      "properties": { "name": "山西" },
      "geometry": {
        "type": "Polygon",
        "coordinates": [[
          [110.5,35.5],[111.0,38.0],[112.0,40.5],[114.0,40.5],[114.0,38.0],
          [113.5,36.0],[112.0,35.0],[110.5,35.5]
        ]]
      }
    },
    {
      "type": "Feature",
      "properties": { "name": "河南" },
      "geometry": {
        "type": "Polygon",
        "coordinates": [[
          [110.5,32.5],[111.0,35.5],[114.0,35.5],[116.0,34.5],[116.0,32.5],
          [114.0,31.5],[112.0,31.5],[110.5,32.5]
        ]]
      }
    },
    {
      "type": "Feature",
      "properties": { "name": "陕西" },
      "geometry": {
        "type": "Polygon",
        "coordinates": [[
          [97.5,35.0],[99.0,38.5],[103.0,39.0],[107.0,39.0],[110.0,38.5],
          [111.0,36.0],[110.5,33.0],[108.0,32.5],[105.0,33.5],[102.0,33.5],
          [99.0,34.0],[97.5,35.0]
        ]]
      }
    },
    {
      "type": "Feature",
      "properties": { "name": "四川" },
      "geometry": {
        "type": "Polygon",
        "coordinates": [[
          [98.0,27.5],[100.0,31.5],[103.0,33.0],[106.0,32.5],[108.0,31.0],
          [107.5,29.0],[105.0,27.5],[102.0,27.0],[100.0,26.5],[98.0,27.5]
        ]]
      }
    },
    {
      "type": "Feature",
      "properties": { "name": "湖广" },
      "geometry": {
        "type": "Polygon",
        "coordinates": [[
          [108.0,25.0],[109.0,29.0],[111.0,32.0],[114.0,32.0],[115.5,30.0],
          [115.0,27.0],[113.0,25.0],[110.0,24.5],[108.0,25.0]
        ]]
      }
    },
    {
      "type": "Feature",
      "properties": { "name": "浙江" },
      "geometry": {
        "type": "Polygon",
        "coordinates": [[
          [118.5,28.0],[119.5,30.5],[121.5,31.0],[122.0,29.5],[121.0,27.5],
          [119.5,27.0],[118.5,28.0]
        ]]
      }
    },
    {
      "type": "Feature",
      "properties": { "name": "江西" },
      "geometry": {
        "type": "Polygon",
        "coordinates": [[
          [113.5,25.0],[114.5,28.5],[116.0,29.5],[117.5,28.0],[117.0,25.5],
          [115.5,24.5],[113.5,25.0]
        ]]
      }
    },
    {
      "type": "Feature",
      "properties": { "name": "福建" },
      "geometry": {
        "type": "Polygon",
        "coordinates": [[
          [116.0,23.5],[117.0,26.5],[119.5,27.0],[120.0,25.5],[119.0,23.5],
          [117.0,23.0],[116.0,23.5]
        ]]
      }
    },
    {
      "type": "Feature",
      "properties": { "name": "广东" },
      "geometry": {
        "type": "Polygon",
        "coordinates": [[
          [109.5,21.0],[111.0,24.0],[114.0,24.5],[116.5,23.5],[116.0,22.0],
          [114.0,21.5],[111.0,20.8],[109.5,21.0]
        ]]
      }
    },
    {
      "type": "Feature",
      "properties": { "name": "广西" },
      "geometry": {
        "type": "Polygon",
        "coordinates": [[
          [105.5,22.0],[107.0,25.5],[110.5,25.5],[111.0,23.0],[110.0,21.5],
          [107.5,21.5],[105.5,22.0]
        ]]
      }
    },
    {
      "type": "Feature",
      "properties": { "name": "云南" },
      "geometry": {
        "type": "Polygon",
        "coordinates": [[
          [97.5,21.5],[99.0,26.5],[102.0,27.5],[104.0,26.5],[104.5,24.0],
          [103.0,22.0],[100.0,21.0],[98.0,21.0],[97.5,21.5]
        ]]
      }
    },
    {
      "type": "Feature",
      "properties": { "name": "贵州" },
      "geometry": {
        "type": "Polygon",
        "coordinates": [[
          [104.0,25.0],[105.5,27.5],[108.5,27.5],[109.0,25.5],[107.5,24.5],
          [105.0,24.5],[104.0,25.0]
        ]]
      }
    },
    {
      "type": "Feature",
      "properties": { "name": "辽东都司" },
      "geometry": {
        "type": "Polygon",
        "coordinates": [[
          [121.0,40.0],[122.5,41.5],[124.5,41.0],[124.0,39.8],[122.0,39.5],
          [121.0,40.0]
        ]]
      }
    }
  ]
}
