{
  "meta": {
    "source": "据谭其骧《中国历史地图集·清时期·嘉庆二十五年》疆域轮廓手工简化",
    "license": "历史示意，仅用于儿童教育展示",
    "note": "非 CHGIS 精确边界；乾隆/嘉庆年间疆域（盛京+吉林+黑龙江、内外蒙古、新疆、西藏、直省），不含外兴安岭以北俄境"
  },
  "type": "FeatureCollection",
  "features": [
    {
      "type": "Feature",
      "properties": { "name": "盛京·吉林·黑龙江" },
      "geometry": {
        "type": "Polygon",
        "coordinates": [[
          [119.0,41.0],[122.0,43.0],[126.0,47.0],[131.0,50.0],[136.0,52.0],
          [133.0,45.0],[130.0,42.0],[127.0,40.0],[123.0,39.5],[119.0,41.0]
        ]]
      }
    },
    {
      "type": "Feature",
      "properties": { "name": "外蒙古·喀尔喀" },
      "geometry": {
        "type": "Polygon",
        "coordinates": [[
          [90.0,47.0],[100.0,50.0],[112.0,51.0],[120.0,49.5],[116.0,44.0],
          [106.0,43.0],[96.0,44.0],[90.0,47.0]
        ]]
      }
    },
    {
      "type": "Feature",
      "properties": { "name": "内蒙古·漠南" },
      "geometry": {
        "type": "Polygon",
        "coordinates": [[
          [104.0,41.0],[112.0,44.0],[119.0,43.0],[121.0,39.0],[117.0,34.5],
          [111.0,33.5],[106.0,37.0],[104.0,41.0]
        ]]
      }
    },
    {
      "type": "Feature",
      "properties": { "name": "直隶·山西·山东·河南" },
      "geometry": {
        "type": "Polygon",
        "coordinates": [[
          [106.0,37.0],[111.0,33.5],[114.0,32.0],[116.5,34.0],[119.0,37.0],
          [121.0,39.0],[117.0,34.5],[111.0,33.5],[110.0,36.0],[106.0,37.0]
        ]]
      }
    },
    {
      "type": "Feature",
      "properties": { "name": "陕西·甘肃·新疆（伊犁将军辖区）" },
      "geometry": {
        "type": "Polygon",
        "coordinates": [[
          [74.0,43.0],[80.0,46.0],[90.0,46.5],[96.0,44.0],[104.0,41.0],
          [106.0,37.0],[104.0,33.0],[98.0,35.0],[92.0,38.0],[86.0,40.0],
          [78.0,42.0],[74.0,43.0]
        ]]
      }
    },
    {
      "type": "Feature",
      "properties": { "name": "西藏（驻藏大臣辖区）" },
      "geometry": {
        "type": "Polygon",
        "coordinates": [[
          [92.0,28.5],[92.0,33.0],[98.0,35.0],[104.0,33.0],[100.0,29.0],
          [96.0,26.0],[92.0,28.5]
        ]]
      }
    },
    {
      "type": "Feature",
      "properties": { "name": "四川·湖广" },
      "geometry": {
        "type": "Polygon",
        "coordinates": [[
          [98.0,29.0],[100.0,33.0],[104.0,33.0],[108.0,31.5],[111.0,30.0],
          [110.0,26.0],[106.0,27.0],[102.0,26.5],[98.0,29.0]
        ]]
      }
    },
    {
      "type": "Feature",
      "properties": { "name": "浙江·江西·福建" },
      "geometry": {
        "type": "Polygon",
        "coordinates": [[
          [116.5,25.0],[119.0,25.0],[121.0,29.0],[121.5,31.0],[119.0,32.0],
          [116.5,34.0],[115.0,30.0],[116.0,27.0],[116.5,25.0]
        ]]
      }
    },
    {
      "type": "Feature",
      "properties": { "name": "广东·广西·云南·贵州" },
      "geometry": {
        "type": "Polygon",
        "coordinates": [[
          [96.0,26.0],[100.0,29.0],[104.0,33.0],[108.0,31.5],[111.0,30.0],
          [114.0,28.0],[116.0,27.0],[116.5,25.0],[114.0,22.0],[110.0,21.0],
          [106.0,24.0],[102.0,23.0],[98.0,23.5],[96.0,26.0]
        ]]
      }
    },
    {
      "type": "Feature",
      "properties": { "name": "台湾" },
      "geometry": {
        "type": "Polygon",
        "coordinates": [[
          [121.0,25.0],[121.5,24.0],[120.5,22.0],[119.8,22.5],[120.5,24.5],[121.0,25.0]
        ]]
      }
    }
  ]
}
