{
  "meta": {
    "source": "据谭其骧《中国历史地图集·唐时期》疆域轮廓手工简化",
    "license": "历史示意，仅用于儿童教育展示",
    "note": "非 CHGIS 精确边界；十道/都护府格局已简化，仅保留唐前期疆域大形（含西域安西都护府、北庭都护府极西 attested 范围）"
  },
  "type": "FeatureCollection",
  "features": [
    {
      "type": "Feature",
      "properties": { "name": "关内·京畿道" },
      "geometry": {
        "type": "Polygon",
        "coordinates": [[
          [103.5,34.5],[107.0,36.5],[111.0,37.5],[114.5,36.5],[116.0,34.5],
          [114.0,32.0],[110.0,31.0],[106.0,32.0],[103.5,34.5]
        ]]
      }
    },
    {
      "type": "Feature",
      "properties": { "name": "河北道" },
      "geometry": {
        "type": "Polygon",
        "coordinates": [[
          [111.0,37.5],[114.5,41.5],[118.0,42.0],[121.0,41.0],[120.0,38.0],
          [116.0,34.5],[114.5,36.5],[111.0,37.5]
        ]]
      }
    },
    {
      "type": "Feature",
      "properties": { "name": "河东道" },
      "geometry": {
        "type": "Polygon",
        "coordinates": [[
          [110.0,36.5],[114.5,36.5],[116.0,34.5],[113.0,33.5],[110.5,34.5],
          [110.0,36.5]
        ]]
      }
    },
    {
      "type": "Feature",
      "properties": { "name": "陇右道" },
      "geometry": {
        "type": "Polygon",
        "coordinates": [[
          [92.0,38.0],[97.0,41.0],[103.5,40.0],[107.0,36.5],[103.5,34.5],
          [99.0,35.5],[94.0,36.0],[92.0,38.0]
        ]]
      }
    },
    {
      "type": "Feature",
      "properties": { "name": "关内道·西域（安西都护府）" },
      "geometry": {
        "type": "Polygon",
        "coordinates": [[
          [74.0,41.0],[80.0,45.0],[88.0,45.5],[92.0,42.0],[92.0,38.0],
          [86.0,36.0],[79.0,36.5],[74.0,38.0],[74.0,41.0]
        ]]
      }
    },
    {
      "type": "Feature",
      "properties": { "name": "朔方·北庭都护府" },
      "geometry": {
        "type": "Polygon",
        "coordinates": [[
          [88.0,45.5],[94.0,47.0],[101.0,47.5],[106.0,45.0],[103.5,40.0],
          [97.0,41.0],[92.0,42.0],[88.0,45.5]
        ]]
      }
    },
    {
      "type": "Feature",
      "properties": { "name": "河南道" },
      "geometry": {
        "type": "Polygon",
        "coordinates": [[
          [110.5,34.5],[113.0,33.5],[116.0,34.5],[118.5,33.0],[117.0,31.0],
          [113.0,31.5],[110.5,32.5],[110.5,34.5]
        ]]
      }
    },
    {
      "type": "Feature",
      "properties": { "name": "江南东道" },
      "geometry": {
        "type": "Polygon",
        "coordinates": [[
          [117.0,31.0],[119.5,32.5],[121.5,31.5],[121.5,28.0],[119.0,26.0],
          [117.5,27.0],[117.0,31.0]
        ]]
      }
    },
    {
      "type": "Feature",
      "properties": { "name": "江南西道" },
      "geometry": {
        "type": "Polygon",
        "coordinates": [[
          [112.0,30.0],[113.0,31.5],[117.0,31.0],[117.5,27.0],[115.0,25.0],
          [113.0,26.5],[112.0,30.0]
        ]]
      }
    },
    {
      "type": "Feature",
      "properties": { "name": "剑南道" },
      "geometry": {
        "type": "Polygon",
        "coordinates": [[
          [97.0,33.5],[102.0,34.0],[106.0,32.0],[108.0,30.5],[106.5,27.5],
          [103.0,26.0],[100.0,28.5],[97.5,31.0],[97.0,33.5]
        ]]
      }
    },
    {
      "type": "Feature",
      "properties": { "name": "岭南道" },
      "geometry": {
        "type": "Polygon",
        "coordinates": [[
          [106.5,27.5],[108.0,30.5],[112.0,30.0],[113.0,26.5],[115.0,25.0],
          [113.0,23.0],[110.0,21.5],[107.5,22.0],[106.5,25.0],[106.5,27.5]
        ]]
      }
    },
    {
      "type": "Feature",
      "properties": { "name": "南诏" },
      "geometry": {
        "type": "Polygon",
        "coordinates": [[
          [97.5,26.5],[100.0,28.5],[103.0,26.0],[104.0,24.0],[102.0,22.0],
          [99.0,22.5],[97.5,24.0],[97.5,26.5]
        ]]
      }
    }
  ]
}
