{
  "meta": {
    "source": "据谭其骧《中国历史地图集·元时期》疆域轮廓手工简化",
    "license": "历史示意，仅用于儿童教育展示",
    "note": "非 CHGIS 精确边界；只画元朝东亚疆域（中书省+各行省+岭北/辽阳行省），西边钦察、察合台、窝阔台汗国为四大汗国区域、主图不画"
  },
  "type": "FeatureCollection",
  "features": [
    {
      "type": "Feature",
      "properties": { "name": "岭北行省" },
      "geometry": {
        "type": "Polygon",
        "coordinates": [[
          [90.0,47.0],[100.0,50.0],[110.0,51.0],[118.0,50.0],[112.0,44.0],
          [104.0,43.0],[96.0,44.5],[90.0,47.0]
        ]]
      }
    },
    {
      "type": "Feature",
      "properties": { "name": "辽阳行省" },
      "geometry": {
        "type": "Polygon",
        "coordinates": [[
          [112.0,44.0],[118.0,50.0],[124.0,53.0],[130.0,51.0],[128.0,42.0],
          [123.0,40.0],[119.0,41.5],[116.0,43.5],[112.0,44.0]
        ]]
      }
    },
    {
      "type": "Feature",
      "properties": { "name": "中书省（腹里）" },
      "geometry": {
        "type": "Polygon",
        "coordinates": [[
          [104.0,43.0],[112.0,44.0],[116.0,43.5],[119.0,41.5],[121.0,39.0],
          [117.0,34.5],[112.0,32.5],[108.0,34.5],[104.0,38.0],[104.0,43.0]
        ]]
      }
    },
    {
      "type": "Feature",
      "properties": { "name": "陕西行省" },
      "geometry": {
        "type": "Polygon",
        "coordinates": [[
          [97.0,38.5],[104.0,38.0],[108.0,34.5],[108.0,31.5],[105.0,32.0],
          [100.0,33.5],[97.0,35.5],[97.0,38.5]
        ]]
      }
    },
    {
      "type": "Feature",
      "properties": { "name": "甘肃行省" },
      "geometry": {
        "type": "Polygon",
        "coordinates": [[
          [90.0,42.5],[96.0,44.5],[104.0,43.0],[104.0,38.0],[97.0,38.5],
          [92.0,40.5],[90.0,42.5]
        ]]
      }
    },
    {
      "type": "Feature",
      "properties": { "name": "四川行省" },
      "geometry": {
        "type": "Polygon",
        "coordinates": [[
          [97.0,35.5],[100.0,33.5],[105.0,32.0],[108.0,31.5],[106.5,27.5],
          [103.0,26.5],[100.0,29.5],[97.5,31.5],[97.0,35.5]
        ]]
      }
    },
    {
      "type": "Feature",
      "properties": { "name": "河南江北行省" },
      "geometry": {
        "type": "Polygon",
        "coordinates": [[
          [108.0,31.5],[108.0,34.5],[112.0,32.5],[117.0,34.5],[119.5,32.0],
          [117.0,29.5],[112.0,30.0],[108.0,31.5]
        ]]
      }
    },
    {
      "type": "Feature",
      "properties": { "name": "湖广行省" },
      "geometry": {
        "type": "Polygon",
        "coordinates": [[
          [108.0,31.5],[112.0,30.0],[117.0,29.5],[116.0,25.0],[112.0,25.0],
          [108.5,27.0],[108.0,31.5]
        ]]
      }
    },
    {
      "type": "Feature",
      "properties": { "name": "江浙行省" },
      "geometry": {
        "type": "Polygon",
        "coordinates": [[
          [117.0,29.5],[119.5,32.0],[122.0,31.0],[122.5,27.5],[119.0,25.0],
          [116.0,25.0],[117.0,29.5]
        ]]
      }
    },
    {
      "type": "Feature",
      "properties": { "name": "江西行省" },
      "geometry": {
        "type": "Polygon",
        "coordinates": [[
          [112.0,25.0],[116.0,25.0],[116.5,24.0],[115.0,22.0],[112.0,23.5],
          [112.0,25.0]
        ]]
      }
    },
    {
      "type": "Feature",
      "properties": { "name": "云南行省" },
      "geometry": {
        "type": "Polygon",
        "coordinates": [[
          [97.5,24.0],[100.0,29.5],[103.0,26.5],[106.5,27.5],[105.0,24.5],
          [102.0,22.0],[99.0,21.5],[97.5,24.0]
        ]]
      }
    },
    {
      "type": "Feature",
      "properties": { "name": "陕西行省·四川行省以西（吐蕃等处宣慰司）" },
      "geometry": {
        "type": "Polygon",
        "coordinates": [[
          [97.0,35.5],[92.0,33.0],[89.0,30.0],[92.0,28.5],[97.5,31.5],[97.0,35.5]
        ]]
      }
    }
  ]
}
